*******************************************************************************
Ephemeris / WWW_USER Mon Jul 15 19:13:26 2024 Pasadena, USA      / Horizons    
*******************************************************************************
Target body name: (2018 VS1)                      {source: JPL#4}
Center body name: Earth (399)                     {source: DE441}
Center-site name: Gemini South Obs., Cerro Pachon
*******************************************************************************
Start time      : A.D. 2018-Nov-14 23:25:00.0000 UT      
Stop  time      : A.D. 2018-Nov-15 09:29:00.0000 UT      
Step-size       : 1 minutes
*******************************************************************************
Target pole/equ : undefined
Target radii    : undefined                                                    
Center geodetic : 289.2634, -30.2406227, 2.71233  {E-lon(deg),Lat(deg),Alt(km)}
Center cylindric: 289.2634,5517.21435,-3194.81213 {E-lon(deg),Dxy(km),Dz(km)}
Center pole/equ : ITRF93                          {East-longitude positive}
Center radii    : 6378.137, 6378.137, 6356.752 km {Equator_a, b, pole_c}       
Target primary  : Sun
Vis. interferer : MOON (R_eq= 1737.400) km        {source: DE441}
Rel. light bend : Sun                             {source: DE441}
Rel. lght bnd GM: 1.3271E+11 km^3/s^2                                          
Small-body perts: Yes                             {source: SB441-N16}
Atmos refraction: NO (AIRLESS)
RA format       : HMS
Time format     : CAL 
Calendar mode   : Mixed Julian/Gregorian
RTS-only print  : NO       
EOP file        : eop.240715.p241008                                           
EOP coverage    : DATA-BASED 1962-JAN-20 TO 2024-JUL-15. PREDICTS-> 2024-OCT-07
Units conversion: 1 au= 149597870.700 km, c= 299792.458 km/s, 1 day= 86400.0 s 
Table cut-offs 1: Elevation (-90.0deg=NO ),Airmass (>38.000=NO), Daylight (YES)
Table cut-offs 2: Solar elongation (  0.0,180.0=NO ),Local Hour Angle( 0.0=NO )
Table cut-offs 3: RA/DEC angular rate (     0.0=NO )                           
*******************************************************************************
Initial IAU76/J2000 heliocentric ecliptic osculating elements (au, days, deg.):
  EPOCH=  2458427.5 ! 2018-Nov-05.00 (TDB)         Residual RMS= .21634        
   EC= .3907275528854954   QR= .7806320880190512   TP= 2458486.1030618688      
   OM= 55.95483604725189   W=  67.17004921097404   IN= 3.601110299269385       
  Equivalent ICRF heliocentric cartesian coordinates (au, au/d):
   X= 7.595935200506908E-01  Y= 6.354459268576240E-01  Z= 2.586666727482118E-01
  VX=-1.643099138746886E-02 VY= 7.530892270769961E-03 VZ= 4.533522122669557E-03
Asteroid physical parameters (km, seconds, rotational period in hours):        
   GM= n.a.                RAD= n.a.               ROTPER= n.a.                
   H= 26.6                 G= .150                 B-V= n.a.                   
                           ALBEDO= n.a.            STYP= n.a.                  
*******************************************************************************
 Date__(UT)__HR:MN     R.A._________(ICRF)_________DEC
******************************************************
$$SOE
 2018-Nov-15 07:37     14 43 50.457274 -21 52 15.36996
 2018-Nov-15 07:38     14 43 50.533605 -21 52 06.91008
 2018-Nov-15 07:39     14 43 50.609627 -21 51 58.45335
 2018-Nov-15 07:40     14 43 50.685340 -21 51 49.99976
 2018-Nov-15 07:41     14 43 50.760743 -21 51 41.54931
 2018-Nov-15 07:42     14 43 50.835834 -21 51 33.10199
 2018-Nov-15 07:43     14 43 50.910613 -21 51 24.65779
 2018-Nov-15 07:44     14 43 50.985081 -21 51 16.21670
 2018-Nov-15 07:45     14 43 51.059235 -21 51 07.77871
 2018-Nov-15 07:46     14 43 51.133076 -21 50 59.34382
 2018-Nov-15 07:47     14 43 51.206602 -21 50 50.91202
 2018-Nov-15 07:48     14 43 51.279814 -21 50 42.48330
 2018-Nov-15 07:49     14 43 51.352710 -21 50 34.05765
 2018-Nov-15 07:50     14 43 51.425289 -21 50 25.63507
 2018-Nov-15 07:51     14 43 51.497552 -21 50 17.21554
 2018-Nov-15 07:52     14 43 51.569498 -21 50 08.79905
 2018-Nov-15 07:53     14 43 51.641126 -21 50 00.38561
 2018-Nov-15 07:54     14 43 51.712435 -21 49 51.97520
 2018-Nov-15 07:55     14 43 51.783425 -21 49 43.56781
 2018-Nov-15 07:56     14 43 51.854095 -21 49 35.16343
 2018-Nov-15 07:57     14 43 51.924445 -21 49 26.76207
 2018-Nov-15 07:58     14 43 51.994474 -21 49 18.36370
 2018-Nov-15 07:59     14 43 52.064182 -21 49 09.96832
 2018-Nov-15 08:00     14 43 52.133568 -21 49 01.57592
 2018-Nov-15 08:01     14 43 52.202631 -21 48 53.18650
 2018-Nov-15 08:02     14 43 52.271371 -21 48 44.80004
 2018-Nov-15 08:03     14 43 52.339787 -21 48 36.41654
 2018-Nov-15 08:04     14 43 52.407879 -21 48 28.03598
 2018-Nov-15 08:05     14 43 52.475647 -21 48 19.65837
 2018-Nov-15 08:06     14 43 52.543089 -21 48 11.28369
 2018-Nov-15 08:07     14 43 52.610205 -21 48 02.91194
 2018-Nov-15 08:08 A   14 43 52.676996 -21 47 54.54310
 2018-Nov-15 08:09 A   14 43 52.743459 -21 47 46.17716
 2018-Nov-15 08:10 A   14 43 52.809595 -21 47 37.81413
 2018-Nov-15 08:11 A   14 43 52.875404 -21 47 29.45399
 2018-Nov-15 08:12 A   14 43 52.940884 -21 47 21.09673
 2018-Nov-15 08:13 A   14 43 53.006036 -21 47 12.74234
 2018-Nov-15 08:14 A   14 43 53.070858 -21 47 04.39082
 2018-Nov-15 08:15 A   14 43 53.135351 -21 46 56.04216
 2018-Nov-15 08:16 A   14 43 53.199513 -21 46 47.69635
 2018-Nov-15 08:17 A   14 43 53.263345 -21 46 39.35338
 2018-Nov-15 08:18 A   14 43 53.326846 -21 46 31.01324
 2018-Nov-15 08:19 A   14 43 53.390016 -21 46 22.67592
 2018-Nov-15 08:20 A   14 43 53.452853 -21 46 14.34142
 2018-Nov-15 08:21 A   14 43 53.515359 -21 46 06.00973
 2018-Nov-15 08:22 A   14 43 53.577531 -21 45 57.68084
 2018-Nov-15 08:23 A   14 43 53.639371 -21 45 49.35474
 2018-Nov-15 08:24 A   14 43 53.700876 -21 45 41.03141
 2018-Nov-15 08:25 A   14 43 53.762048 -21 45 32.71087
 2018-Nov-15 08:26 A   14 43 53.822886 -21 45 24.39309
 2018-Nov-15 08:27 A   14 43 53.883388 -21 45 16.07806
 2018-Nov-15 08:28 A   14 43 53.943556 -21 45 07.76579
 2018-Nov-15 08:29 A   14 43 54.003388 -21 44 59.45625
 2018-Nov-15 08:30 A   14 43 54.062884 -21 44 51.14945
 2018-Nov-15 08:31 A   14 43 54.122044 -21 44 42.84537
 2018-Nov-15 08:32 A   14 43 54.180867 -21 44 34.54400
 2018-Nov-15 08:33 A   14 43 54.239353 -21 44 26.24534
 2018-Nov-15 08:34 A   14 43 54.297502 -21 44 17.94938
 2018-Nov-15 08:35 A   14 43 54.355313 -21 44 09.65611
 2018-Nov-15 08:36 A   14 43 54.412786 -21 44 01.36552
 2018-Nov-15 08:37 A   14 43 54.469921 -21 43 53.07760
 2018-Nov-15 08:38 A   14 43 54.526717 -21 43 44.79235
 2018-Nov-15 08:39 A   14 43 54.583174 -21 43 36.50975
 2018-Nov-15 08:40 A   14 43 54.639292 -21 43 28.22980
 2018-Nov-15 08:41 N   14 43 54.695071 -21 43 19.95249
 2018-Nov-15 08:42 N   14 43 54.750509 -21 43 11.67781
 2018-Nov-15 08:43 N   14 43 54.805607 -21 43 03.40575
 2018-Nov-15 08:44 N   14 43 54.860365 -21 42 55.13630
 2018-Nov-15 08:45 Nr  14 43 54.914782 -21 42 46.86946
 2018-Nov-15 08:46 N   14 43 54.968858 -21 42 38.60522
 2018-Nov-15 08:47 N   14 43 55.022592 -21 42 30.34356
 2018-Nov-15 08:48 N   14 43 55.075986 -21 42 22.08449
 2018-Nov-15 08:49 N   14 43 55.129037 -21 42 13.82798
 2018-Nov-15 08:50 N   14 43 55.181746 -21 42 05.57404
 2018-Nov-15 08:51 N   14 43 55.234113 -21 41 57.32265
 2018-Nov-15 08:52 N   14 43 55.286137 -21 41 49.07380
 2018-Nov-15 08:53 N   14 43 55.337819 -21 41 40.82750
 2018-Nov-15 08:54 N   14 43 55.389158 -21 41 32.58372
 2018-Nov-15 08:55 N   14 43 55.440153 -21 41 24.34246
 2018-Nov-15 08:56 N   14 43 55.490806 -21 41 16.10372
 2018-Nov-15 08:57 N   14 43 55.541114 -21 41 07.86747
 2018-Nov-15 08:58 N   14 43 55.591079 -21 40 59.63372
 2018-Nov-15 08:59 N   14 43 55.640700 -21 40 51.40246
 2018-Nov-15 09:00 N   14 43 55.689976 -21 40 43.17368
 2018-Nov-15 09:01 N   14 43 55.738909 -21 40 34.94736
 2018-Nov-15 09:02 N   14 43 55.787496 -21 40 26.72351
 2018-Nov-15 09:03 N   14 43 55.835739 -21 40 18.50210
 2018-Nov-15 09:04 N   14 43 55.883638 -21 40 10.28315
 2018-Nov-15 09:05 N   14 43 55.931191 -21 40 02.06662
 2018-Nov-15 09:06 N   14 43 55.978399 -21 39 53.85252
 2018-Nov-15 09:07 N   14 43 56.025262 -21 39 45.64085
 2018-Nov-15 09:08 N   14 43 56.071780 -21 39 37.43158
 2018-Nov-15 09:09 N   14 43 56.117952 -21 39 29.22471
 2018-Nov-15 09:10 N   14 43 56.163778 -21 39 21.02023
 2018-Nov-15 09:11 N   14 43 56.209258 -21 39 12.81814
 2018-Nov-15 09:12 N   14 43 56.254393 -21 39 04.61843
 2018-Nov-15 09:13 C   14 43 56.299182 -21 38 56.42108
 2018-Nov-15 09:14 C   14 43 56.343625 -21 38 48.22609
 2018-Nov-15 09:15 C   14 43 56.387721 -21 38 40.03345
 2018-Nov-15 09:16 C   14 43 56.431472 -21 38 31.84315
 2018-Nov-15 09:17 C   14 43 56.474876 -21 38 23.65519
 2018-Nov-15 09:18 C   14 43 56.517934 -21 38 15.46955
 2018-Nov-15 09:19 C   14 43 56.560645 -21 38 07.28623
 2018-Nov-15 09:20 C   14 43 56.603010 -21 37 59.10522
 2018-Nov-15 09:21 C   14 43 56.645028 -21 37 50.92650
 2018-Nov-15 09:22 C   14 43 56.686700 -21 37 42.75008
 2018-Nov-15 09:23 C   14 43 56.728025 -21 37 34.57594
 2018-Nov-15 09:24 C   14 43 56.769004 -21 37 26.40407
 2018-Nov-15 09:25 C   14 43 56.809636 -21 37 18.23447
 2018-Nov-15 09:26 C   14 43 56.849921 -21 37 10.06712
 2018-Nov-15 09:27 C   14 43 56.889859 -21 37 01.90203
 2018-Nov-15 09:28 C   14 43 56.929451 -21 36 53.73917
 2018-Nov-15 09:29 C   14 43 56.968697 -21 36 45.57855
